{"type": "FeatureCollection", "features": [ {"type": "Feature", "properties": {"norad_id": 34784, "name": "COSMOS 2251 DEB", "group": "cosmos-2251-debris", "lat": -19.682578635711206, "lon": -30.277088553361377, "alt_km": 729.7979677803569, "timestamp": "2025-12-06T20:37:56.470683+00:00", "meta": {"OBJECT_NAME": "COSMOS 2251 DEB", "OBJECT_ID": "1993-036AAM", "EPOCH": "2025-12-06T05:56:01.298400", "MEAN_MOTION": 14.60734634, "ECCENTRICITY": 0.00496438, "INCLINATION": 74.007, "RA_OF_ASC_NODE": 336.783, "ARG_OF_PERICENTER": 148.0473, "MEAN_ANOMALY": 212.3721, "EPHEMERIS_TYPE": 0, "CLASSIFICATION_TYPE": "U", "NORAD_CAT_ID": 34784, "ELEMENT_SET_NO": 999, "REV_AT_EPOCH": 88440, "BSTAR": 0.00087620671, "MEAN_MOTION_DOT": 4.32e-05, "MEAN_MOTION_DDOT": 0}, "tle": {"line1": "1 34784U 93036AAM 25340.24723725  .00004320  00000+0  87621-3 0  9998", "line2": "2 34784  74.0070 336.7830 0049643 148.0473 212.3721 14.60734634884409"}}, "geometry": {"type": "Point", "coordinates": [-30.277088553361377, -19.682578635711206]}}, {"type": "Feature", "properties": {"norad_id": 34790, "name": "COSMOS 2251 DEB", "group": "cosmos-2251-debris", "lat": 28.571385196437703, "lon": 65.33613696712993, "alt_km": 878.6712037809457, "timestamp": "2025-12-06T20:37:56.470694+00:00", "meta": {"OBJECT_NAME": "COSMOS 2251 DEB", "OBJECT_ID": "1993-036AAT", "EPOCH": "2025-12-05T20:37:53.398848", "MEAN_MOTION": 14.24594365, "ECCENTRICITY": 0.01006913, "INCLINATION": 74.0548, "RA_OF_ASC_NODE": 256.0925, "ARG_OF_PERICENTER": 319.2185, "MEAN_ANOMALY": 104.4255, "EPHEMERIS_TYPE": 0, "CLASSIFICATION_TYPE": "U", "NORAD_CAT_ID": 34790, "ELEMENT_SET_NO": 999, "REV_AT_EPOCH": 86475, "BSTAR": 0.0016022683, "MEAN_MOTION_DOT": 3.898e-05, "MEAN_MOTION_DDOT": 0}, "tle": {"line1": "1 34790U 93036AAT 25339.85964582  .00003898  00000+0  16023-2 0  9994", "line2": "2 34790  74.0548 256.0925 0100691 319.2185 104.4255 14.24594365864752"}}, "geometry": {"type": "Point", "coordinates": [65.33613696712993, 28.571385196437703]}}, {"type": "Feature", "properties": {"norad_id": 34792, "name": "COSMOS 2251 DEB", "group": "cosmos-2251-debris", "lat": 22.480718147374272, "lon": -5.943377413240692, "alt_km": 709.9823520462514, "timestamp": "2025-12-06T20:37:56.470705+00:00", "meta": {"OBJECT_NAME": "COSMOS 2251 DEB", "OBJECT_ID": "1993-036AAV", "EPOCH": "2025-12-06T15:13:43.271040", "MEAN_MOTION": 14.55881128, "ECCENTRICITY": 0.00125664, "INCLINATION": 74.017, "RA_OF_ASC_NODE": 181.2954, "ARG_OF_PERICENTER": 274.9097, "MEAN_ANOMALY": 142.0934, "EPHEMERIS_TYPE": 0, "CLASSIFICATION_TYPE": "U", "NORAD_CAT_ID": 34792, "ELEMENT_SET_NO": 999, "REV_AT_EPOCH": 87561, "BSTAR": 0.001558711, "MEAN_MOTION_DOT": 6.826e-05, "MEAN_MOTION_DDOT": 0}, "tle": {"line1": "1 34792U 93036AAV 25340.63452860  .00006826  00000+0  15587-2 0  9993", "line2": "2 34792  74.0170 181.2954 0012566 274.9097 142.0934 14.55881128875617"}}, "geometry": {"type": "Point", "coordinates": [-5.943377413240692, 22.480718147374272]}}, {"type": "Feature", "properties": {"norad_id": 34793, "name": "COSMOS 2251 DEB", "group": "cosmos-2251-debris", "lat": -56.32090404447886, "lon": -124.26914639209612, "alt_km": 785.7182734067774, "timestamp": "2025-12-06T20:37:56.470717+00:00", "meta": {"OBJECT_NAME": "COSMOS 2251 DEB", "OBJECT_ID": "1993-036AAW", "EPOCH": "2025-12-06T14:33:29.540160", "MEAN_MOTION": 14.38628638, "ECCENTRICITY": 0.00500502, "INCLINATION": 74.0029, "RA_OF_ASC_NODE": 261.6971, "ARG_OF_PERICENTER": 57.433, "MEAN_ANOMALY": 12.9376, "EPHEMERIS_TYPE": 0, "CLASSIFICATION_TYPE": "U", "NORAD_CAT_ID": 34793, "ELEMENT_SET_NO": 999, "REV_AT_EPOCH": 87242, "BSTAR": 0.00050813382, "MEAN_MOTION_DOT": 1.553e-05, "MEAN_MOTION_DDOT": 0}, "tle": {"line1": "1 34793U 93036AAW 25340.60659190  .00001553  00000+0  50813-3 0  9990", "line2": "2 34793  74.0029 261.6971 0050050  57.4330  12.9376 14.38628638872424"}}, "geometry": {"type": "Point", "coordinates": [-124.26914639209612, -56.32090404447886]}}, {"type": "Feature", "properties": {"norad_id": 34796, "name": "COSMOS 2251 DEB", "group": "cosmos-2251-debris", "lat": -2.015599421894468, "lon": 47.9466342357289, "alt_km": 793.5444268559941, "timestamp": "2025-12-06T20:37:56.470728+00:00", "meta": {"OBJECT_NAME": "COSMOS 2251 DEB", "OBJECT_ID": "1993-036AAZ", "EPOCH": "2025-12-04T16:32:19.644000", "MEAN_MOTION": 14.48622795, "ECCENTRICITY": 0.0100109, "INCLINATION": 74.0308, "RA_OF_ASC_NODE": 231.4366, "ARG_OF_PERICENTER": 335.2768, "MEAN_ANOMALY": 52.2124, "EPHEMERIS_TYPE": 0, "CLASSIFICATION_TYPE": "U", "NORAD_CAT_ID": 34796, "ELEMENT_SET_NO": 999, "REV_AT_EPOCH": 87911, "BSTAR": 0.0015827, "MEAN_MOTION_DOT": 6.321e-05, "MEAN_MOTION_DDOT": 0}, "tle": {"line1": "1 34796U 93036AAZ 25338.68911625  .00006321  00000+0  15827-2 0  9995", "line2": "2 34796  74.0308 231.4366 0100109 335.2768  52.2124 14.48622795879113"}}, "geometry": {"type": "Point", "coordinates": [47.9466342357289, -2.015599421894468]}}, {"type": "Feature", "properties": {"norad_id": 34797, "name": "COSMOS 2251 DEB", "group": "cosmos-2251-debris", "lat": 65.0361647327371, "lon": 149.05361498088237, "alt_km": 789.69835786155, "timestamp": "2025-12-06T20:37:56.470738+00:00", "meta": {"OBJECT_NAME": "COSMOS 2251 DEB", "OBJECT_ID": "1993-036ABA", "EPOCH": "2025-12-06T15:18:32.741280", "MEAN_MOTION": 14.42649949, "ECCENTRICITY": 0.00724054, "INCLINATION": 73.9773, "RA_OF_ASC_NODE": 111.3499, "ARG_OF_PERICENTER": 225.9765, "MEAN_ANOMALY": 133.5412, "EPHEMERIS_TYPE": 0, "CLASSIFICATION_TYPE": "U", "NORAD_CAT_ID": 34797, "ELEMENT_SET_NO": 999, "REV_AT_EPOCH": 87327, "BSTAR": 0.0039721456, "MEAN_MOTION_DOT": 0.00013628, "MEAN_MOTION_DDOT": 0}, "tle": {"line1": "1 34797U 93036ABA 25340.63787895  .00013628  00000+0  39721-2 0  9991", "line2": "2 34797  73.9773 111.3499 0072405 225.9765 133.5412 14.42649949873278"}}, "geometry": {"type": "Point", "coordinates": [149.05361498088237, 65.0361647327371]}}, {"type": "Feature", "properties": {"norad_id": 34814, "name": "COSMOS 2251 DEB", "group": "cosmos-2251-debris", "lat": 1.9554461754585841, "lon": 155.7772352273504, "alt_km": 744.5806127032147, "timestamp": "2025-12-06T20:37:56.470749+00:00", "meta": {"OBJECT_NAME": "COSMOS 2251 DEB", "OBJECT_ID": "1993-036ABD", "EPOCH": "2025-12-06T06:32:24.978912", "MEAN_MOTION": 14.36849213, "ECCENTRICITY": 0.00566347, "INCLINATION": 73.8955, "RA_OF_ASC_NODE": 337.4307, "ARG_OF_PERICENTER": 228.0837, "MEAN_ANOMALY": 154.2293, "EPHEMERIS_TYPE": 0, "CLASSIFICATION_TYPE": "U", "NORAD_CAT_ID": 34814, "ELEMENT_SET_NO": 999, "REV_AT_EPOCH": 87240, "BSTAR": 0.0014993778, "MEAN_MOTION_DOT": 4.489e-05, "MEAN_MOTION_DDOT": 0}, "tle": {"line1": "1 34814U 93036ABD 25340.27251133  .00004489  00000+0  14994-2 0  9992", "line2": "2 34814  73.8955 337.4307 0056634 228.0837 154.2293 14.36849213872408"}}, "geometry": {"type": "Point", "coordinates": [155.7772352273504, 1.9554461754585841]}}, {"type": "Feature", "properties": {"norad_id": 34815, "name": "COSMOS 2251 DEB", "group": "cosmos-2251-debris", "lat": 1.3955707373095136, "lon": 72.94595335225684, "alt_km": 671.4434185238133, "timestamp": "2025-12-06T20:37:56.470760+00:00", "meta": {"OBJECT_NAME": "COSMOS 2251 DEB", "OBJECT_ID": "1993-036ABE", "EPOCH": "2025-12-06T00:19:57.803808", "MEAN_MOTION": 14.7816615, "ECCENTRICITY": 0.00589879, "INCLINATION": 74.0464, "RA_OF_ASC_NODE": 255.0048, "ARG_OF_PERICENTER": 325.5684, "MEAN_ANOMALY": 34.1674, "EPHEMERIS_TYPE": 0, "CLASSIFICATION_TYPE": "U", "NORAD_CAT_ID": 34815, "ELEMENT_SET_NO": 999, "REV_AT_EPOCH": 88528, "BSTAR": 0.0016313721, "MEAN_MOTION_DOT": 0.00012154, "MEAN_MOTION_DDOT": 0}, "tle": {"line1": "1 34815U 93036ABE 25340.01386347  .00012154  00000+0  16314-2 0  9997", "line2": "2 34815  74.0464 255.0048 0058987 325.5684  34.1674 14.78166150885287"}}, "geometry": {"type": "Point", "coordinates": [72.94595335225684, 1.3955707373095136]}}, {"type": "Feature", "properties": {"norad_id": 34816, "name": "COSMOS 2251 DEB", "group": "cosmos-2251-debris", "lat": 35.5028401678239, "lon": -39.1844678324458, "alt_km": 959.9078709089263, "timestamp": "2025-12-06T20:37:56.470770+00:00", "meta": {"OBJECT_NAME": "COSMOS 2251 DEB", "OBJECT_ID": "1993-036ABF", "EPOCH": "2025-12-06T06:38:33.487872", "MEAN_MOTION": 13.58296174, "ECCENTRICITY": 0.03736457, "INCLINATION": 73.886, "RA_OF_ASC_NODE": 153.667, "ARG_OF_PERICENTER": 219.2558, "MEAN_ANOMALY": 318.307, "EPHEMERIS_TYPE": 0, "CLASSIFICATION_TYPE": "U", "NORAD_CAT_ID": 34816, "ELEMENT_SET_NO": 999, "REV_AT_EPOCH": 82695, "BSTAR": 0.001873391, "MEAN_MOTION_DOT": 2.123e-05, "MEAN_MOTION_DDOT": 0}, "tle": {"line1": "1 34816U 93036ABF 25340.27677648  .00002123  00000+0  18734-2 0  9996", "line2": "2 34816  73.8860 153.6670 0373645 219.2558 318.3070 13.58296174826952"}}, "geometry": {"type": "Point", "coordinates": [-39.1844678324458, 35.5028401678239]}}, {"type": "Feature", "properties": {"norad_id": 34818, "name": "COSMOS 2251 DEB", "group": "cosmos-2251-debris", "lat": -63.10745718925838, "lon": 162.11470765785475, "alt_km": 787.8515589398557, "timestamp": "2025-12-06T20:37:56.470782+00:00", "meta": {"OBJECT_NAME": "COSMOS 2251 DEB", "OBJECT_ID": "1993-036ABH", "EPOCH": "2025-12-06T08:28:53.851584", "MEAN_MOTION": 14.36953851, "ECCENTRICITY": 0.00238708, "INCLINATION": 74.0353, "RA_OF_ASC_NODE": 308.6819, "ARG_OF_PERICENTER": 25.9641, "MEAN_ANOMALY": 124.2997, "EPHEMERIS_TYPE": 0, "CLASSIFICATION_TYPE": "U", "NORAD_CAT_ID": 34818, "ELEMENT_SET_NO": 999, "REV_AT_EPOCH": 87278, "BSTAR": 0.00043920307, "MEAN_MOTION_DOT": 1.279e-05, "MEAN_MOTION_DDOT": 0}, "tle": {"line1": "1 34818U 93036ABH 25340.35340106  .00001279  00000+0  43920-3 0  9990", "line2": "2 34818  74.0353 308.6819 0023870  25.9641 124.2997 14.36953851872781"}}, "geometry": {"type": "Point", "coordinates": [162.11470765785475, -63.10745718925838]}}]}